NORAD_CAT_ID,OBJECT_NAME,OBJECT_TYPE,EPOCH,MEAN_MOTION,ECCENTRICITY,INCLINATION,RA_OF_ASC_NODE,ARG_OF_PERICENTER,MEAN_ANOMALY,BSTAR,MEAN_MOTION_DOT,MEAN_MOTION_DDOT,TLE_LINE0,TLE_LINE1,TLE_LINE2,SEMIMAJOR_AXIS,PERIOD,APOGEE,PERIGEE,DECAYED
49735.0,STARLINK-3113,PAYLOAD,2023-05-12 05:33:34,15.08831205,0.0001319,53.2146,113.9749,87.7178,272.3965,0.00011718,1.577e-05,0.0,0 STARLINK-3113,1 49735U 21115M   23132.23164843  .00001577  00000-0  11718-3 0  9991,2 49735  53.2146 113.9749 0001319  87.7178 272.3965 15.08831205 80631,6917.907,95.438,540.685,538.86,0.0
49735.0,STARLINK-3113,PAYLOAD,2023-05-13 05:24:20,15.08847638,0.0001399,53.2156,109.5135,87.0832,273.032,0.0001881,2.708e-05,0.0,0 STARLINK-3113,1 49735U 21115M   23133.22524083  .00002708  00000-0  18810-3 0  9994,2 49735  53.2156 109.5135 0001399  87.0832 273.0320 15.08847638 80786,6917.857,95.437,540.69,538.754,0.0
49735.0,STARLINK-3113,PAYLOAD,2023-05-13 14:56:39,15.08840521,0.000128,53.2148,107.7329,95.5071,264.6067,3.5757e-05,2.81e-06,0.0,0 STARLINK-3113,1 49735U 21115M   23133.62268280  .00000281  00000-0  35757-4 0  9996,2 49735  53.2148 107.7329 0001280  95.5071 264.6067 15.08840521 79731,6917.879,95.438,540.629,538.858,0.0
49735.0,STARLINK-3113,PAYLOAD,2023-05-14 05:15:08,15.08832043,0.0001421,53.2161,105.0565,97.7325,262.3829,-1.6927e-05,-5.57e-06,0.0,0 STARLINK-3113,1 49735U 21115M   23134.21885006 -.00000557  00000-0 -16927-4 0  9999,2 49735  53.2161 105.0565 0001421  97.7325 262.3829 15.08832043 80937,6917.905,95.438,540.753,538.787,0.0
49735.0,STARLINK-3113,PAYLOAD,2023-05-14 22:44:22,15.08843768,0.0001294,53.2153,101.7819,95.2666,264.8474,4.8608e-06,-2.11e-06,0.0,0 STARLINK-3113,1 49735U 21115M   23134.94748395 -.00000211  00000-0  48608-5 0  9996,2 49735  53.2153 101.7819 0001294  95.2666 264.8474 15.08843768 81044,6917.869,95.437,540.629,538.839,0.0
49735.0,STARLINK-3113,PAYLOAD,2023-05-15 05:05:55,15.08840667,0.0001373,53.2154,100.5938,97.6052,262.5096,0.0002986,4.468e-05,0.0,0 STARLINK-3113,1 49735U 21115M   23135.21244558  .00004468  00000-0  29860-3 0  9993,2 49735  53.2154 100.5938 0001373  97.6052 262.5096 15.08840667 79976,6917.878,95.438,540.693,538.794,0.0
49735.0,STARLINK-3113,PAYLOAD,2023-05-15 14:38:13,15.08845146,0.0001223,53.2159,98.8083,83.315,276.7981,9.1446e-05,1.168e-05,0.0,0 STARLINK-3113,1 49735U 21115M   23135.60988263  .00001168  00000-0  91446-4 0  9998,2 49735  53.2159  98.8083 0001223  83.3150 276.7981 15.08845146 80032,6917.865,95.437,540.576,538.884,0.0
49735.0,STARLINK-3113,PAYLOAD,2023-05-16 06:32:05,15.08837391,0.0001199,53.2157,95.8343,87.0364,273.0765,7.1713e-05,8.54e-06,0.0,0 STARLINK-3113,1 49735U 21115M   23136.27228930  .00000854  00000-0  71713-4 0  9996,2 49735  53.2157  95.8343 0001199  87.0364 273.0765 15.08837391 81243,6917.888,95.438,540.583,538.924,0.0
49735.0,STARLINK-3113,PAYLOAD,2023-05-17 06:22:52,15.08846763,0.0001198,53.216,91.372,92.7194,267.3935,0.00011941,1.613e-05,0.0,0 STARLINK-3113,1 49735U 21115M   23137.26588495  .00001613  00000-0  11941-3 0  9991,2 49735  53.2160  91.3720 0001198  92.7194 267.3935 15.08846763 81394,6917.86,95.437,540.553,538.896,0.0
49735.0,STARLINK-3113,PAYLOAD,2023-05-18 03:02:54,15.08831282,0.0001212,53.2169,87.5079,87.3642,272.7489,0.00010575,1.395e-05,0.0,0 STARLINK-3113,1 49735U 21115M   23138.12701700  .00001395  00000-0  10575-3 0  9992,2 49735  53.2169  87.5079 0001212  87.3642 272.7489 15.08831282 81521,6917.907,95.438,540.61,538.934,0.0
49735.0,STARLINK-3113,PAYLOAD,2023-05-18 06:13:40,15.08838369,0.000124,53.217,86.9123,88.8612,271.2523,0.00010452,1.376e-05,0.0,0 STARLINK-3113,1 49735U 21115M   23138.25949203  .00001376  00000-0  10452-3 0  9991,2 49735  53.2170  86.9123 0001240  88.8612 271.2523 15.08838369 81548,6917.885,95.438,540.608,538.893,0.0
49735.0,STARLINK-3113,PAYLOAD,2023-05-19 06:04:26,15.08845424,0.0001232,53.2181,82.4515,100.4366,259.6765,0.00016278,2.304e-05,0.0,0 STARLINK-3113,1 49735U 21115M   23139.25308547  .00002304  00000-0  16278-3 0  9996,2 49735  53.2181  82.4515 0001232 100.4366 259.6765 15.08845424 81698,6917.864,95.437,540.581,538.877,0.0
49735.0,STARLINK-3113,PAYLOAD,2023-05-20 02:44:27,15.088409,0.000104,53.2163,78.5834,87.1473,272.9638,0.00010303,1.352e-05,0.0,0 STARLINK-3113,1 49735U 21115M   23140.11420813  .00001352  00000-0  10303-3 0  9999,2 49735  53.2163  78.5834 0001040  87.1473 272.9638 15.08840900 81821,6917.878,95.437,540.462,539.023,0.0
49735.0,STARLINK-3113,PAYLOAD,2023-05-20 20:13:41,15.08853267,0.0001061,53.2172,75.3128,86.7128,273.3985,5.3921e-05,5.71e-06,0.0,0 STARLINK-3113,1 49735U 21115M   23140.84284279  .00000571  00000-0  53921-4 0  9999,2 49735  53.2172  75.3128 0001061  86.7128 273.3985 15.08853267 80826,6917.84,95.437,540.439,538.971,0.0
49735.0,STARLINK-3113,PAYLOAD,2023-05-21 02:35:13,15.08861096,0.0001121,53.2168,74.1288,92.3464,267.7656,0.000191,2.755e-05,0.0,0 STARLINK-3113,1 49735U 21115M   23141.10779688  .00002755  00000-0  19100-3 0  9998,2 49735  53.2168  74.1288 0001121  92.3464 267.7656 15.08861096 81976,6917.816,95.436,540.456,538.905,0.0
49735.0,STARLINK-3113,PAYLOAD,2023-05-21 05:45:59,15.08866651,0.0001191,53.2168,73.5327,96.9356,263.1771,0.00027678,4.123e-05,0.0,0 STARLINK-3113,1 49735U 21115M   23141.24027093  .00004123  00000-0  27678-3 0  9999,2 49735  53.2168  73.5327 0001191  96.9356 263.1771 15.08866651 80889,6917.799,95.436,540.488,538.84,0.0
49735.0,STARLINK-3113,PAYLOAD,2023-05-22 04:01:25,15.08827631,0.0001118,53.217,69.3697,87.0389,273.0731,-0.00014883,-2.655e-05,0.0,0 STARLINK-3113,1 49735U 21115M   23142.16765688 -.00002655  00000-0 -14883-3 0  9994,2 49735  53.2170  69.3697 0001118  87.0389 273.0731 15.08827631 82132,6917.918,95.438,540.557,539.01,0.0
49735.0,STARLINK-3113,PAYLOAD,2023-05-22 11:58:21,15.08831207,0.0001136,53.2173,67.8836,91.2364,268.8758,-4.9593e-05,-1.077e-05,0.0,0 STARLINK-3113,1 49735U 21115M   23142.49885541 -.00001077  00000-0 -49593-4 0  9995,2 49735  53.2173  67.8836 0001136  91.2364 268.8758 15.08831207 81070,6917.907,95.438,540.558,538.986,0.0
49735.0,STARLINK-3113,PAYLOAD,2023-05-23 02:16:49,15.08846242,0.0001005,53.2165,65.2064,89.0007,271.11,0.00031554,4.738e-05,0.0,0 STARLINK-3113,1 49735U 21115M   23143.09501232  .00004738  00000-0  31554-3 0  9996,2 49735  53.2165  65.2064 0001005  89.0007 271.1100 15.08846242 82276,6917.861,95.437,540.422,539.031,0.0
49735.0,STARLINK-3113,PAYLOAD,2023-05-23 03:52:12,15.08851879,0.000105,53.2166,64.9094,92.6451,267.4661,0.00045105,6.9e-05,0.0,0 STARLINK-3113,1 49735U 21115M   23143.16125094  .00006900  00000-0  45105-3 0  9992,2 49735  53.2166  64.9094 0001050  92.6451 267.4661 15.08851879 81179,6917.844,95.437,540.435,538.983,0.0
49735.0,STARLINK-3113,PAYLOAD,2023-05-24 03:42:59,15.08849868,0.000125,53.2162,60.4485,125.3304,234.7805,0.00034483,5.206e-05,0.0,0 STARLINK-3113,1 49735U 21115M   23144.15485283  .00005206  00000-0  34483-3 0  9996,2 49735  53.2162  60.4485 0001250 125.3304 234.7805 15.08849868 82435,6917.85,95.437,540.58,538.85,0.0
49735.0,STARLINK-3113,PAYLOAD,2023-05-25 22:38:24,15.08846777,0.0001102,53.2177,52.4154,110.4806,249.6305,0.00022619,3.314e-05,0.0,0 STARLINK-3113,1 49735U 21115M   23145.94333643  .00003314  00000-0  22619-3 0  9992,2 49735  53.2177  52.4154 0001102 110.4806 249.6305 15.08846777 81595,6917.86,95.437,540.487,538.962,0.0
49735.0,STARLINK-3113,PAYLOAD,2023-05-26 00:13:47,15.08849171,0.0001105,53.217,52.1181,105.5627,254.5487,0.00025613,3.792e-05,0.0,0 STARLINK-3113,1 49735U 21115M   23146.00957550  .00003792  00000-0  25613-3 0  9996,2 49735  53.2170  52.1181 0001105 105.5627 254.5487 15.08849171 82716,6917.852,95.437,540.482,538.953,0.0
49735.0,STARLINK-3113,PAYLOAD,2023-05-26 20:53:48,15.08831662,0.0001408,53.2177,48.2556,105.7656,254.3491,0.00047398,7.262e-05,0.0,0 STARLINK-3113,1 49735U 21115M   23146.87070502  .00007262  00000-0  47398-3 0  9994,2 49735  53.2177  48.2556 0001408 105.7656 254.3491 15.08831662 81735,6917.906,95.438,540.745,538.797,0.0
49735.0,STARLINK-3113,PAYLOAD,2023-05-27 03:15:21,15.08834742,0.0001273,53.2178,47.0665,103.6942,256.4192,0.0002237,3.274e-05,0.0,0 STARLINK-3113,1 49735U 21115M   23147.13566298  .00003274  00000-0  22370-3 0  9998,2 49735  53.2178  47.0665 0001273 103.6942 256.4192 15.08834742 82889,6917.896,95.438,540.642,538.881,0.0
49735.0,STARLINK-3113,PAYLOAD,2023-05-27 22:19:59,15.08836764,0.0001305,53.2186,43.4975,103.9913,256.1224,2.9641e-05,1.84e-06,0.0,0 STARLINK-3113,1 49735U 21115M   23147.93054403  .00000184  00000-0  29641-4 0  9992,2 49735  53.2186  43.4975 0001305 103.9913 256.1224 15.08836764 81898,6917.89,95.438,540.658,538.852,0.0
49735.0,STARLINK-3113,PAYLOAD,2023-05-27 23:55:21,15.08841884,0.0001148,53.2173,43.2026,99.3038,260.8084,4.9768e-07,-2.8e-06,0.0,0 STARLINK-3113,1 49735U 21115M   23147.99678181 -.00000280  00000-0  49768-6 0  9995,2 49735  53.2173  43.2026 0001148  99.3038 260.8084 15.08841884 81907,6917.875,95.437,540.534,538.945,0.0
49735.0,STARLINK-3113,PAYLOAD,2023-05-28 20:35:22,15.08843927,0.0001077,53.2174,39.3367,97.9796,262.1318,0.0001236,1.68e-05,0.0,0 STARLINK-3113,1 49735U 21115M   23148.85789815  .00001680  00000-0  12360-3 0  9997,2 49735  53.2174  39.3367 0001077  97.9796 262.1318 15.08843927 83141,6917.868,95.437,540.478,538.988,0.0
49735.0,STARLINK-3113,PAYLOAD,2023-05-29 02:56:54,15.08852156,0.0001063,53.2174,38.1473,96.9876,263.1237,0.00019212,2.772e-05,0.0,0 STARLINK-3113,1 49735U 21115M   23149.12285116  .00002772  00000-0  19212-3 0  9999,2 49735  53.2174  38.1473 0001063  96.9876 263.1237 15.08852156 83188,6917.843,95.437,540.444,538.973,0.0
49735.0,STARLINK-3113,PAYLOAD,2023-05-29 17:15:24,15.08828194,8.18e-05,53.2185,35.4727,74.7097,285.3986,8.2332e-07,-2.75e-06,0.0,0 STARLINK-3113,1 49735U 21115M   23149.71903431 -.00000275  00000-0  82332-6 0  9994,2 49735  53.2185  35.4727 0000818  74.7097 285.3986 15.08828194 83270,6917.916,95.438,540.347,539.216,0.0
